0 COSMOS 1880
1 18339U 87074F   13281.20760586  .00000002  00000-0 -46990-4 0  2021
2 18339 082.5656 004.3426 0008995 290.0022 097.2019 12.65424461204888
0 COSMOS 1880
1 18339U 87074F   13283.26921186 -.00000001  00000-0 -63775-4 0  2035
2 18339 082.5657 003.0171 0009038 284.7175 129.4937 12.65424328205149
0 COSMOS 1880
1 18339U 87074F   13285.49925600  .00000037  00000-0  14026-3 0  2049
2 18339 082.5656 001.5834 0009022 279.0119 209.1487 12.65424125205427
0 COSMOS 1880
1 18339U 87074F   13287.71003094  .00000047  00000-0  19492-3 0  2054
2 18339 082.5652 000.1621 0009061 273.3994 200.9705 12.65424046205708
0 COSMOS 1880
1 18339U 87074F   13290.15508992  .00000045  00000-0  18356-3 0  2060
2 18339 082.5645 358.5902 0009116 267.2506 180.0816 12.65424291206012
0 COSMOS 1880
1 18339U 87074F   13292.53563201  .00000023  00000-0  65176-4 0  2078
2 18339 082.5641 357.0592 0009159 261.2697 225.2647 12.65424524206315
0 COSMOS 1880
1 18339U 87074F   13294.81572394  .00000009  00000-0 -92149-5 0  2081
2 18339 082.5639 355.5929 0009190 255.5722 172.7915 12.65424742206607
